{
  "type": "FeatureCollection",
  "features": [
    {
      "type": "Feature",
      "properties": {
        "norad_id": 28054,
        "name": "DMSP 5D-3 F16 (USA 172)",
        "group": "weather",
        "lat": 54.25128700703795,
        "lon": -158.97053280058148,
        "alt_km": 843.6991862864443,
        "timestamp": "2025-12-16T19:34:23.907234+00:00",
        "meta_object_name": "DMSP 5D-3 F16 (USA 172)",
        "meta_object_id": "2003-048A",
        "meta_epoch": "2025-12-15T22:53:48.488352",
        "meta_mean_motion": 14.14425402,
        "meta_eccentricity": 0.00063972,
        "meta_inclination": 99.0044,
        "meta_ra_of_asc_node": 7.4364,
        "meta_arg_of_pericenter": 310.7198,
        "meta_mean_anomaly": 109.587,
        "meta_ephemeris_type": 0,
        "meta_classification_type": "U",
        "meta_norad_cat_id": 28054,
        "meta_element_set_no": 999,
        "meta_rev_at_epoch": 14358,
        "meta_bstar": 9.2293294e-05,
        "meta_mean_motion_dot": 1.31e-06,
        "meta_mean_motion_ddot": 0,
        "tle_line1": "1 28054U 03048A   25349.95403343  .00000131  00000+0  92293-4 0  9991",
        "tle_line2": "2 28054  99.0044   7.4364 0006397 310.7198 109.5870 14.14425402143583"
      },
      "geometry": {
        "type": "Point",
        "coordinates": [
          -158.97053280058148,
          54.25128700703795
        ]
      }
    },
    {
      "type": "Feature",
      "properties": {
        "norad_id": 28912,
        "name": "METEOSAT-9 (MSG-2)",
        "group": "weather",
        "lat": 1.4316061284661858,
        "lon": 64.9434443768864,
        "alt_km": 35798.45281501169,
        "timestamp": "2025-12-16T19:34:23.907285+00:00",
        "meta_object_name": "METEOSAT-9 (MSG-2)",
        "meta_object_id": "2005-049B",
        "meta_epoch": "2025-12-15T20:27:10.626048",
        "meta_mean_motion": 1.00278296,
        "meta_eccentricity": 0.00034199,
        "meta_inclination": 8.9463,
        "meta_ra_of_asc_node": 55.948,
        "meta_arg_of_pericenter": 190.7144,
        "meta_mean_anomaly": 190.6182,
        "meta_ephemeris_type": 0,
        "meta_classification_type": "U",
        "meta_norad_cat_id": 28912,
        "meta_element_set_no": 999,
        "meta_rev_at_epoch": 516,
        "meta_bstar": 0,
        "meta_mean_motion_dot": 1.39e-06,
        "meta_mean_motion_ddot": 0,
        "tle_line1": "1 28912U 05049B   25349.85220632  .00000139  00000+0  00000+0 0  9992",
        "tle_line2": "2 28912   8.9463  55.9480 0003419 190.7144 190.6182  1.00278296  5162"
      },
      "geometry": {
        "type": "Point",
        "coordinates": [
          64.9434443768864,
          1.4316061284661858
        ]
      }
    },
    {
      "type": "Feature",
      "properties": {
        "norad_id": 29522,
        "name": "DMSP 5D-3 F17 (USA 191)",
        "group": "weather",
        "lat": 70.16166858929051,
        "lon": -29.116658038015796,
        "alt_km": 841.0609388449475,
        "timestamp": "2025-12-16T19:34:23.907311+00:00",
        "meta_object_name": "DMSP 5D-3 F17 (USA 191)",
        "meta_object_id": "2006-050A",
        "meta_epoch": "2025-12-15T22:52:01.818048",
        "meta_mean_motion": 14.14921037,
        "meta_eccentricity": 0.00095374,
        "meta_inclination": 98.7392,
        "meta_ra_of_asc_node": 355.275,
        "meta_arg_of_pericenter": 215.0402,
        "meta_mean_anomaly": 145.0145,
        "meta_ephemeris_type": 0,
        "meta_classification_type": "U",
        "meta_norad_cat_id": 29522,
        "meta_element_set_no": 999,
        "meta_rev_at_epoch": 98650,
        "meta_bstar": 0.00010750793,
        "meta_mean_motion_dot": 1.64e-06,
        "meta_mean_motion_ddot": 0,
        "tle_line1": "1 29522U 06050A   25349.95279882  .00000164  00000+0  10751-3 0  9991",
        "tle_line2": "2 29522  98.7392 355.2750 0009537 215.0402 145.0145 14.14921037986505"
      },
      "geometry": {
        "type": "Point",
        "coordinates": [
          -29.116658038015796,
          70.16166858929051
        ]
      }
    },
    {
      "type": "Feature",
      "properties": {
        "norad_id": 32958,
        "name": "FENGYUN 3A",
        "group": "weather",
        "lat": -33.128253340017686,
        "lon": 104.54169273378108,
        "alt_km": 832.5265092882837,
        "timestamp": "2025-12-16T19:34:23.907331+00:00",
        "meta_object_name": "FENGYUN 3A",
        "meta_object_id": "2008-026A",
        "meta_epoch": "2025-12-15T20:34:41.856960",
        "meta_mean_motion": 14.19515611,
        "meta_eccentricity": 0.00077955,
        "meta_inclination": 98.6699,
        "meta_ra_of_asc_node": 289.3185,
        "meta_arg_of_pericenter": 300.5674,
        "meta_mean_anomaly": 59.4732,
        "meta_ephemeris_type": 0,
        "meta_classification_type": "U",
        "meta_norad_cat_id": 32958,
        "meta_element_set_no": 999,
        "meta_rev_at_epoch": 90939,
        "meta_bstar": 6.8055938e-05,
        "meta_mean_motion_dot": 1e-06,
        "meta_mean_motion_ddot": 0,
        "tle_line1": "1 32958U 08026A   25349.85742890  .00000100  00000+0  68056-4 0  9998",
        "tle_line2": "2 32958  98.6699 289.3185 0007795 300.5674  59.4732 14.19515611909399"
      },
      "geometry": {
        "type": "Point",
        "coordinates": [
          104.54169273378108,
          -33.128253340017686
        ]
      }
    },
    {
      "type": "Feature",
      "properties": {
        "norad_id": 35491,
        "name": "GOES 14",
        "group": "weather",
        "lat": -0.058578678180293844,
        "lon": -93.03755197039358,
        "alt_km": 35832.77594466199,
        "timestamp": "2025-12-16T19:34:23.907347+00:00",
        "meta_object_name": "GOES 14",
        "meta_object_id": "2009-033A",
        "meta_epoch": "2025-12-15T12:51:26.265888",
        "meta_mean_motion": 1.00096491,
        "meta_eccentricity": 6.041e-05,
        "meta_inclination": 1.2099,
        "meta_ra_of_asc_node": 85.3705,
        "meta_arg_of_pericenter": 168.6787,
        "meta_mean_anomaly": 271.7274,
        "meta_ephemeris_type": 0,
        "meta_classification_type": "U",
        "meta_norad_cat_id": 35491,
        "meta_element_set_no": 999,
        "meta_rev_at_epoch": 475,
        "meta_bstar": 0,
        "meta_mean_motion_dot": 0,
        "meta_mean_motion_ddot": 0,
        "tle_line1": "1 35491U 09033A   25349.53572067  .00000000  00000+0  00000+0 0  9993",
        "tle_line2": "2 35491   1.2099  85.3705 0000604 168.6787 271.7274  1.00096491  4752"
      },
      "geometry": {
        "type": "Point",
        "coordinates": [
          -93.03755197039358,
          -0.058578678180293844
        ]
      }
    },
    {
      "type": "Feature",
      "properties": {
        "norad_id": 35951,
        "name": "DMSP 5D-3 F18 (USA 210)",
        "group": "weather",
        "lat": -61.404687377908004,
        "lon": -16.130672347406126,
        "alt_km": 853.7988459165317,
        "timestamp": "2025-12-16T19:34:23.907359+00:00",
        "meta_object_name": "DMSP 5D-3 F18 (USA 210)",
        "meta_object_id": "2009-057A",
        "meta_epoch": "2025-12-15T21:48:13.845312",
        "meta_mean_motion": 14.14771163,
        "meta_eccentricity": 0.00119939,
        "meta_inclination": 98.8836,
        "meta_ra_of_asc_node": 326.2934,
        "meta_arg_of_pericenter": 54.4286,
        "meta_mean_anomaly": 305.8003,
        "meta_ephemeris_type": 0,
        "meta_classification_type": "U",
        "meta_norad_cat_id": 35951,
        "meta_element_set_no": 999,
        "meta_rev_at_epoch": 83367,
        "meta_bstar": 0.00016864252,
        "meta_mean_motion_dot": 2.81e-06,
        "meta_mean_motion_ddot": 0,
        "tle_line1": "1 35951U 09057A   25349.90849358  .00000281  00000+0  16864-3 0  9991",
        "tle_line2": "2 35951  98.8836 326.2934 0011993  54.4286 305.8003 14.14771163833679"
      },
      "geometry": {
        "type": "Point",
        "coordinates": [
          -16.130672347406126,
          -61.404687377908004
        ]
      }
    },
    {
      "type": "Feature",
      "properties": {
        "norad_id": 36411,
        "name": "EWS-G2 (GOES 15)",
        "group": "weather",
        "lat": -0.052305334132899645,
        "lon": 80.67293422664102,
        "alt_km": 35809.929178228376,
        "timestamp": "2025-12-16T19:34:23.907373+00:00",
        "meta_object_name": "EWS-G2 (GOES 15)",
        "meta_object_id": "2010-008A",
        "meta_epoch": "2025-12-15T20:40:38.740800",
        "meta_mean_motion": 1.00270508,
        "meta_eccentricity": 0.00055584,
        "meta_inclination": 0.8214,
        "meta_ra_of_asc_node": 86.0762,
        "meta_arg_of_pericenter": 175.7709,
        "meta_mean_anomaly": 194.4603,
        "meta_ephemeris_type": 0,
        "meta_classification_type": "U",
        "meta_norad_cat_id": 36411,
        "meta_element_set_no": 999,
        "meta_rev_at_epoch": 5780,
        "meta_bstar": 0,
        "meta_mean_motion_dot": 6e-07,
        "meta_mean_motion_ddot": 0,
        "tle_line1": "1 36411U 10008A   25349.86155950  .00000060  00000+0  00000+0 0  9990",
        "tle_line2": "2 36411   0.8214  86.0762 0005558 175.7709 194.4603  1.00270508 57800"
      },
      "geometry": {
        "type": "Point",
        "coordinates": [
          80.67293422664102,
          -0.052305334132899645
        ]
      }
    }
  ]
}